[{"OBJECT_NAME":"STARLINK-6058","OBJECT_ID":"2023-078AG","EPOCH":"2026-03-09T22:36:25.053696","MEAN_MOTION":14.98328333,"ECCENTRICITY":0.00022815,"INCLINATION":70.0008,"RA_OF_ASC_NODE":343.9928,"ARG_OF_PERICENTER":262.4965,"MEAN_ANOMALY":97.5935,"EPHEMERIS_TYPE":0,"CLASSIFICATION_TYPE":"U","NORAD_CAT_ID":56797,"ELEMENT_SET_NO":999,"REV_AT_EPOCH":15271,"BSTAR":-3.4565952e-5,"MEAN_MOTION_DOT":-5.05e-6,"MEAN_MOTION_DDOT":0},{"OBJECT_NAME":"FENGYUN 1C DEB","OBJECT_ID":"1999-025ZJ","EPOCH":"2026-03-09T08:54:25.088544","MEAN_MOTION":14.24354874,"ECCENTRICITY":0.03682357,"INCLINATION":98.8184,"RA_OF_ASC_NODE":25.2526,"ARG_OF_PERICENTER":224.9546,"MEAN_ANOMALY":267.1531,"EPHEMERIS_TYPE":0,"CLASSIFICATION_TYPE":"U","NORAD_CAT_ID":30297,"ELEMENT_SET_NO":999,"REV_AT_EPOCH":96384,"BSTAR":0.0019862484,"MEAN_MOTION_DOT":9.295e-5,"MEAN_MOTION_DDOT":0}]
